CENTAURI-6              
1 59451U 24066K   26068.32290132  .00007311  00000+0  52686-3 0  9997
2 59451  45.6063  55.7055 0002534 285.4438  74.6166 15.04786474105074
STARLINK-34919          
1 65802U 25218M   26068.57553545  .00010802  00000+0  75128-3 0  9996
2 65802  97.6023 292.8584 0001302  75.5084 284.6287 15.05670616 24957
